[{"name":"GPS BIIF-3  (PRN 24)","l1":"1 38833U 12053A   26182.77459940  .00000033  00000+0  00000+0 0  9994","l2":"2 38833  53.5881 143.0019 0181172  65.9876 295.8558  2.00567786 99737","cat":"navigation"},{"name":"GPS BIIF-4  (PRN 27)","l1":"1 39166U 13023A   26183.63914926 -.00000008  00000+0  00000+0 0  9991","l2":"2 39166  54.4921 268.3439 0141428  51.0835 310.2387  2.00563489 96195","cat":"navigation"},{"name":"GPS BIIF-5  (PRN 30)","l1":"1 39533U 14008A   26182.64372740  .00000038  00000+0  00000+0 0  9997","l2":"2 39533  53.6565 148.7302 0084215 231.4494 127.7567  2.00560783 89976","cat":"navigation"},{"name":"GPS BIIF-6  (PRN 06)","l1":"1 39741U 14026A   26183.41806250 -.00000077  00000+0  00000+0 0  9996","l2":"2 39741  56.4903 330.9249 0038108 326.1840  33.5696  2.00560005 88845","cat":"navigation"},{"name":"GPS BIIF-7  (PRN 09)","l1":"1 40105U 14045A   26182.51269218 -.00000021  00000+0  00000+0 0  9999","l2":"2 40105  55.3618  87.8943 0033861 118.3379 242.0338  2.00559971 86365","cat":"navigation"},{"name":"GPS BIIF-8  (PRN 03)","l1":"1 40294U 14068A   26181.88291062 -.00000062  00000+0  00000+0 0  9999","l2":"2 40294  56.9970  30.4273 0067311  71.0884 289.7026  2.00577197 85489","cat":"navigation"},{"name":"GPS BIIF-9  (PRN 26)","l1":"1 40534U 15013A   26182.52201142  .00000067  00000+0  00000+0 0  9993","l2":"2 40534  53.1671 203.5847 0109911  40.2564 320.6065  2.00550585 82116","cat":"navigation"},{"name":"GSAT0103 (GALILEO-FM3)","l1":"1 38857U 12055A   26180.79397422 -.00000025  00000+0  00000+0 0  9990","l2":"2 38857  55.8136 101.1997 0004423 307.4227  52.5245  1.70473507 85221","cat":"navigation"},{"name":"GSAT0201 (GALILEO 5)","l1":"1 40128U 14050A   26180.27461735 -.00000039  00000+0  00000+0 0  9998","l2":"2 40128  48.8619 272.9404 1676251 179.8513 180.2703  1.85520280 78549","cat":"navigation"},{"name":"GSAT0202 (GALILEO 6)","l1":"1 40129U 14050B   26181.60808378 -.00000031  00000+0  00000+0 0  9997","l2":"2 40129  48.8773 271.9714 1677698 180.6428 179.1780  1.85520713 80732","cat":"navigation"},{"name":"GSAT0203 (GALILEO 7)","l1":"1 40544U 15017A   26182.29078740 -.00000082  00000+0  00000+0 0  9996","l2":"2 40544  56.7819 341.2117 0002294 263.0128  96.9526  1.70476409 69441","cat":"navigation"},{"name":"GSAT0204 (GALILEO 8)","l1":"1 40545U 15017B   26181.37344972 -.00000085  00000+0  00000+0 0  9991","l2":"2 40545  56.7889 341.2552 0002318 237.2395 122.7292  1.70475898 32470","cat":"navigation"},{"name":"BEIDOU-2 IGSO-5","l1":"1 37948U 11073A   26183.72937883 -.00000128  00000+0  00000+0 0  9990","l2":"2 37948  47.6496 271.3544 0114527 222.0502 141.5350  1.00270596 53296","cat":"geostationary"},{"name":"LUCH-5A","l1":"1 37951U 11074B   26183.67256291 -.00000043  00000+0  00000+0 0  9992","l2":"2 37951   8.7907  73.5828 0002701  42.8868 213.3031  1.00272754 53208","cat":"geostationary"},{"name":"BEIDOU-2 G5","l1":"1 38091U 12008A   26183.77476543  .00000066  00000+0  00000+0 0  9995","l2":"2 38091   3.6107  69.6058 0007751 275.8683 273.0426  1.00267772 52523","cat":"geostationary"},{"name":"SES-5","l1":"1 38652U 12036A   26183.65487641  .00000044  00000+0  00000+0 0  9993","l2":"2 38652   0.0450 320.1883 0002268 138.1529  63.0821  1.00270830 44613","cat":"geostationary"},{"name":"GSAT-10","l1":"1 38779U 12051B   26183.79488649 -.00000154  00000+0  00000+0 0  9997","l2":"2 38779   0.0496 246.8058 0008086 206.3747 196.8210  1.00270526 50251","cat":"geostationary"},{"name":"BEIDOU-2 G6","l1":"1 38953U 12059A   26183.74333458 -.00000167  00000+0  00000+0 0  9995","l2":"2 38953   4.4591  73.3607 0009447 329.8204 229.2141  1.00270408 50065","cat":"geostationary"},{"name":"LUCH-5B","l1":"1 38977U 12061A   26183.73194471 -.00000131  00000+0  00000+0 0  9994","l2":"2 38977  10.5156  49.7258 0003080 136.4223 341.8785  1.00272557 49762","cat":"geostationary"},{"name":"IRNSS-1A","l1":"1 39199U 13034A   26183.73619770  .00000067  00000+0  00000+0 0  9993","l2":"2 39199  35.7542  63.6474 0017840 181.6763 355.5578  1.00279523 47526","cat":"geostationary"},{"name":"ASTRA 5B","l1":"1 39617U 14011B   26183.72747301  .00000148  00000+0  00000+0 0  9995","l2":"2 39617   0.0773 302.4413 0002216 164.9168  98.8104  1.00274609 44825","cat":"geostationary"},{"name":"IRNSS-1B","l1":"1 39635U 14017A   26183.73602435  .00000142  00000+0  00000+0 0  9994","l2":"2 39635  28.8979 240.1346 0022895 194.2235 166.4341  1.00271810 44950","cat":"geostationary"},{"name":"LUCH-5V","l1":"1 39727U 14023A   26183.80520380 -.00000260  00000+0  00000+0 0  9991","l2":"2 39727   5.1696  69.5910 0002636  56.8714 178.9914  1.00269954 44514","cat":"geostationary"},{"name":"IRNSS-1C","l1":"1 40269U 14061A   26183.79397764 -.00000155  00000+0  00000+0 0  9995","l2":"2 40269   6.5564  88.6335 0022102   4.1504 196.8433  1.00274305 42847","cat":"geostationary"},{"name":"BEIDOU-2 M3","l1":"1 38250U 12018A   26182.14960573 -.00000069  00000+0  00000+0 0  9998","l2":"2 38250  55.7448 304.4042 0020422 273.2421  86.5319  1.86230135 96209","cat":"navigation"},{"name":"BEIDOU-2 M4","l1":"1 38251U 12018B   26182.08192837 -.00000069  00000+0  00000+0 0  9992","l2":"2 38251  55.6447 303.6195 0011579 274.1308  85.7452  1.86229794 96203","cat":"navigation"},{"name":"BEIDOU-2 M6","l1":"1 38775U 12050B   26183.40249326 -.00000038  00000+0  00000+0 0  9998","l2":"2 38775  56.5573  62.3914 0013259 359.6187   0.4495  1.86231040 93590","cat":"navigation"},{"name":"COSMOS 2485 [GLONASS-M]","l1":"1 39155U 13019A   26179.64150049 -.00000037  00000+0  00000+0 0  9990","l2":"2 39155  65.4258  73.2198 0022897 232.6425 127.1980  2.13103400102529","cat":"navigation"},{"name":"COSMOS 2492 [GLONASS-M]","l1":"1 39620U 14012A   26182.88516837 -.00000051  00000+0  00000+0 0  9998","l2":"2 39620  65.2886 313.4363 0010241 321.2365  38.6908  2.13103546 95553","cat":"navigation"},{"name":"COSMOS 2500 [GLONASS-M]","l1":"1 40001U 14032A   26182.58548362 -.00000053  00000+0  00000+0 0  9992","l2":"2 40001  65.2235 313.1924 0007812 187.4639 172.5247  2.13106189 93763","cat":"navigation"},{"name":"COSMOS 2501 [GLONASS-K]","l1":"1 40315U 14075A   26181.43994692  .00000079  00000+0  00000+0 0  9998","l2":"2 40315  63.6170 189.9132 0022635 212.5837 147.3119  2.13101453 90136","cat":"navigation"}]